{
  "type": "FeatureCollection",
  "features": [
    {
      "type": "Feature",
      "properties": {
        "norad_id": 66632,
        "name": "STARLINK-35973",
        "group": "last-30-days",
        "lat": 52.78011461282385,
        "lon": -128.71304454652972,
        "alt_km": 439.1948501396246,
        "timestamp": "2025-12-24T09:46:29.713936+00:00",
        "meta_object_name": "STARLINK-35973",
        "meta_object_id": "2025-271R",
        "meta_epoch": "2025-12-23T20:53:55.230432",
        "meta_mean_motion": 15.3964384,
        "meta_eccentricity": 0.00014608,
        "meta_inclination": 53.1592,
        "meta_ra_of_asc_node": 134.5786,
        "meta_arg_of_pericenter": 54.0913,
        "meta_mean_anomaly": 306.0227,
        "meta_ephemeris_type": 0,
        "meta_classification_type": "U",
        "meta_norad_cat_id": 66632,
        "meta_element_set_no": 999,
        "meta_rev_at_epoch": 588,
        "meta_bstar": 0.00086763253,
        "meta_mean_motion_dot": 0.00034489,
        "meta_mean_motion_ddot": 0,
        "tle_line1": "1 66632U 25271R   25357.87077813  .00034489  00000+0  86763-3 0  9993",
        "tle_line2": "2 66632  53.1592 134.5786 0001460  54.0913 306.0227 15.39643840  5881"
      },
      "geometry": {
        "type": "Point",
        "coordinates": [
          -128.71304454652972,
          52.78011461282385
        ]
      }
    },
    {
      "type": "Feature",
      "properties": {
        "norad_id": 66633,
        "name": "STARLINK-35948",
        "group": "last-30-days",
        "lat": 52.50862539368446,
        "lon": -125.73863273191375,
        "alt_km": 440.2244250190088,
        "timestamp": "2025-12-24T09:46:29.713947+00:00",
        "meta_object_name": "STARLINK-35948",
        "meta_object_id": "2025-271S",
        "meta_epoch": "2025-12-23T20:53:26.239776",
        "meta_mean_motion": 15.39641401,
        "meta_eccentricity": 3.207e-05,
        "meta_inclination": 53.1599,
        "meta_ra_of_asc_node": 134.576,
        "meta_arg_of_pericenter": 293.0532,
        "meta_mean_anomaly": 67.0439,
        "meta_ephemeris_type": 0,
        "meta_classification_type": "U",
        "meta_norad_cat_id": 66633,
        "meta_element_set_no": 999,
        "meta_rev_at_epoch": 592,
        "meta_bstar": 0.00074568042,
        "meta_mean_motion_dot": 0.00029564,
        "meta_mean_motion_ddot": 0,
        "tle_line1": "1 66633U 25271S   25357.87044259  .00029564  00000+0  74568-3 0  9990",
        "tle_line2": "2 66633  53.1599 134.5760 0000320 293.0532  67.0439 15.39641401  5922"
      },
      "geometry": {
        "type": "Point",
        "coordinates": [
          -125.73863273191375,
          52.50862539368446
        ]
      }
    },
    {
      "type": "Feature",
      "properties": {
        "norad_id": 66634,
        "name": "STARLINK-35967",
        "group": "last-30-days",
        "lat": 42.07957831078583,
        "lon": -90.60739934749394,
        "alt_km": 440.75890855357466,
        "timestamp": "2025-12-24T09:46:29.713959+00:00",
        "meta_object_name": "STARLINK-35967",
        "meta_object_id": "2025-271T",
        "meta_epoch": "2025-12-24T04:34:08.756832",
        "meta_mean_motion": 15.39628169,
        "meta_eccentricity": 0.0001328,
        "meta_inclination": 53.1614,
        "meta_ra_of_asc_node": 133.0169,
        "meta_arg_of_pericenter": 97.4774,
        "meta_mean_anomaly": 262.6382,
        "meta_ephemeris_type": 0,
        "meta_classification_type": "U",
        "meta_norad_cat_id": 66634,
        "meta_element_set_no": 999,
        "meta_rev_at_epoch": 593,
        "meta_bstar": 0.0014715,
        "meta_mean_motion_dot": 0.00058931,
        "meta_mean_motion_ddot": 0,
        "tle_line1": "1 66634U 25271T   25358.19037913  .00058931  00000+0  14715-2 0  9993",
        "tle_line2": "2 66634  53.1614 133.0169 0001328  97.4774 262.6382 15.39628169  5938"
      },
      "geometry": {
        "type": "Point",
        "coordinates": [
          -90.60739934749394,
          42.07957831078583
        ]
      }
    },
    {
      "type": "Feature",
      "properties": {
        "norad_id": 66635,
        "name": "STARLINK-35955",
        "group": "last-30-days",
        "lat": 4.234421277596491,
        "lon": -51.286609379802115,
        "alt_km": 447.37540880105644,
        "timestamp": "2025-12-24T09:46:29.713969+00:00",
        "meta_object_name": "STARLINK-35955",
        "meta_object_id": "2025-271U",
        "meta_epoch": "2025-12-24T02:47:17.685888",
        "meta_mean_motion": 15.39650524,
        "meta_eccentricity": 0.0001227,
        "meta_inclination": 53.1628,
        "meta_ra_of_asc_node": 133.2672,
        "meta_arg_of_pericenter": 85.9627,
        "meta_mean_anomaly": 274.1518,
        "meta_ephemeris_type": 0,
        "meta_classification_type": "U",
        "meta_norad_cat_id": 66635,
        "meta_element_set_no": 999,
        "meta_rev_at_epoch": 596,
        "meta_bstar": 0.00097981,
        "meta_mean_motion_dot": 0.00039032,
        "meta_mean_motion_ddot": 0,
        "tle_line1": "1 66635U 25271U   25358.11617692  .00039032  00000+0  97981-3 0  9992",
        "tle_line2": "2 66635  53.1628 133.2672 0001227  85.9627 274.1518 15.39650524  5964"
      },
      "geometry": {
        "type": "Point",
        "coordinates": [
          -51.286609379802115,
          4.234421277596491
        ]
      }
    },
    {
      "type": "Feature",
      "properties": {
        "norad_id": 66636,
        "name": "STARLINK-35968",
        "group": "last-30-days",
        "lat": 24.328248422663027,
        "lon": -67.87237083355184,
        "alt_km": 444.0341622208598,
        "timestamp": "2025-12-24T09:46:29.713980+00:00",
        "meta_object_name": "STARLINK-35968",
        "meta_object_id": "2025-271V",
        "meta_epoch": "2025-12-23T20:40:04.403712",
        "meta_mean_motion": 15.39659771,
        "meta_eccentricity": 0.00010839,
        "meta_inclination": 53.1598,
        "meta_ra_of_asc_node": 134.5153,
        "meta_arg_of_pericenter": 75.8209,
        "meta_mean_anomaly": 284.2917,
        "meta_ephemeris_type": 0,
        "meta_classification_type": "U",
        "meta_norad_cat_id": 66636,
        "meta_element_set_no": 999,
        "meta_rev_at_epoch": 592,
        "meta_bstar": 0.00094849799,
        "meta_mean_motion_dot": 0.00037777,
        "meta_mean_motion_ddot": 0,
        "tle_line1": "1 66636U 25271V   25357.86116208  .00037777  00000+0  94850-3 0  9997",
        "tle_line2": "2 66636  53.1598 134.5153 0001083  75.8209 284.2917 15.39659771  5927"
      },
      "geometry": {
        "type": "Point",
        "coordinates": [
          -67.87237083355184,
          24.328248422663027
        ]
      }
    },
    {
      "type": "Feature",
      "properties": {
        "norad_id": 66637,
        "name": "STARLINK-35953",
        "group": "last-30-days",
        "lat": -16.208201597617492,
        "lon": -35.57227900905799,
        "alt_km": 450.46313219831336,
        "timestamp": "2025-12-24T09:46:29.713992+00:00",
        "meta_object_name": "STARLINK-35953",
        "meta_object_id": "2025-271W",
        "meta_epoch": "2025-12-24T02:40:36.942816",
        "meta_mean_motion": 15.3962321,
        "meta_eccentricity": 0.0002122,
        "meta_inclination": 53.1612,
        "meta_ra_of_asc_node": 133.2348,
        "meta_arg_of_pericenter": 85.8324,
        "meta_mean_anomaly": 274.2924,
        "meta_ephemeris_type": 0,
        "meta_classification_type": "U",
        "meta_norad_cat_id": 66637,
        "meta_element_set_no": 999,
        "meta_rev_at_epoch": 596,
        "meta_bstar": 0.0011044,
        "meta_mean_motion_dot": 0.00044035,
        "meta_mean_motion_ddot": 0,
        "tle_line1": "1 66637U 25271W   25358.11153869  .00044035  00000+0  11044-2 0  9999",
        "tle_line2": "2 66637  53.1612 133.2348 0002122  85.8324 274.2924 15.39623210  5961"
      },
      "geometry": {
        "type": "Point",
        "coordinates": [
          -35.57227900905799,
          -16.208201597617492
        ]
      }
    },
    {
      "type": "Feature",
      "properties": {
        "norad_id": 66638,
        "name": "STARLINK-35972",
        "group": "last-30-days",
        "lat": -49.50004163646501,
        "lon": 13.108880328295667,
        "alt_km": 453.47958272361666,
        "timestamp": "2025-12-24T09:46:29.714002+00:00",
        "meta_object_name": "STARLINK-35972",
        "meta_object_id": "2025-271X",
        "meta_epoch": "2025-12-24T02:27:14.478624",
        "meta_mean_motion": 15.39644446,
        "meta_eccentricity": 0.0002467,
        "meta_inclination": 53.162,
        "meta_ra_of_asc_node": 133.1754,
        "meta_arg_of_pericenter": 80.0074,
        "meta_mean_anomaly": 280.1209,
        "meta_ephemeris_type": 0,
        "meta_classification_type": "U",
        "meta_norad_cat_id": 66638,
        "meta_element_set_no": 999,
        "meta_rev_at_epoch": 596,
        "meta_bstar": 0.00095988,
        "meta_mean_motion_dot": 0.0003822,
        "meta_mean_motion_ddot": 0,
        "tle_line1": "1 66638U 25271X   25358.10225091  .00038220  00000+0  95988-3 0  9995",
        "tle_line2": "2 66638  53.1620 133.1754 0002467  80.0074 280.1209 15.39644446  5968"
      },
      "geometry": {
        "type": "Point",
        "coordinates": [
          13.108880328295667,
          -49.50004163646501
        ]
      }
    }
  ]
}